[{"OBJECT_NAME":"OBJECT F","OBJECT_ID":"2023-072F","EPOCH":"2026-03-09T23:31:37.259904","MEAN_MOTION":15.29470958,"ECCENTRICITY":0.00062878,"INCLINATION":97.5173,"RA_OF_ASC_NODE":265.798,"ARG_OF_PERICENTER":19.0017,"MEAN_ANOMALY":341.1456,"EPHEMERIS_TYPE":0,"CLASSIFICATION_TYPE":"U","NORAD_CAT_ID":56748,"ELEMENT_SET_NO":999,"REV_AT_EPOCH":15460,"BSTAR":0.00043416252,"MEAN_MOTION_DOT":0.00012341,"MEAN_MOTION_DDOT":0},{"OBJECT_NAME":"STARLINK-32311","OBJECT_ID":"2024-222A","EPOCH":"2026-03-09T12:04:48.054144","MEAN_MOTION":15.27609475,"ECCENTRICITY":0.00014883,"INCLINATION":42.999,"RA_OF_ASC_NODE":122.2531,"ARG_OF_PERICENTER":274.2359,"MEAN_ANOMALY":85.8323,"EPHEMERIS_TYPE":0,"CLASSIFICATION_TYPE":"U","NORAD_CAT_ID":62114,"ELEMENT_SET_NO":999,"REV_AT_EPOCH":7305,"BSTAR":0.0014882889,"MEAN_MOTION_DOT":0.00040957,"MEAN_MOTION_DDOT":0}]
